NORAD_CAT_ID,OBJECT_NAME,OBJECT_TYPE,EPOCH,MEAN_MOTION,ECCENTRICITY,INCLINATION,RA_OF_ASC_NODE,ARG_OF_PERICENTER,MEAN_ANOMALY,BSTAR,MEAN_MOTION_DOT,MEAN_MOTION_DDOT,TLE_LINE0,TLE_LINE1,TLE_LINE2,SEMIMAJOR_AXIS,PERIOD,APOGEE,PERIGEE,DECAYED
52628.0,STARLINK-4001,PAYLOAD,2024-05-18 21:07:40,15.08812821,0.000119,53.2184,6.1196,60.5796,299.5315,-0.00024943,-4.252e-05,0.0,0 STARLINK-4001,1 52628U 22052AG  24139.88032510 -.00004252  00000-0 -24943-3 0  9990,2 52628  53.2184   6.1196 0001190  60.5796 299.5315 15.08812821111558,6917.963,95.439,540.652,539.005,0.0
52628.0,STARLINK-4001,PAYLOAD,2024-05-18 22:43:02,15.08828939,6.8e-05,53.2176,5.8198,58.5895,301.5164,-2.5257e-05,-6.89e-06,0.0,0 STARLINK-4001,1 52628U 22052AG  24139.94655680 -.00000689  00000-0 -25257-4 0  9996,2 52628  53.2176   5.8198 0000680  58.5895 301.5164 15.08828939111189,6917.914,95.438,540.25,539.309,0.0
52628.0,STARLINK-4001,PAYLOAD,2024-05-19 00:18:25,15.08828223,8.69e-05,53.2182,5.5231,54.3111,305.7962,-2.778e-05,-7.3e-06,0.0,0 STARLINK-4001,1 52628U 22052AG  24140.01279861 -.00000730  00000-0 -27780-4 0  9999,2 52628  53.2182   5.5231 0000869  54.3111 305.7962 15.08828223111576,6917.916,95.438,540.383,539.18,0.0
52628.0,STARLINK-4001,PAYLOAD,2024-05-19 14:36:54,15.08831486,9.82e-05,53.2185,2.8492,66.5945,293.515,-0.00010852,-2.014e-05,0.0,0 STARLINK-4001,1 52628U 22052AG  24140.60896175 -.00002014  00000-0 -10852-3 0  9995,2 52628  53.2185   2.8492 0000982  66.5945 293.5150 15.08831486111280,6917.906,95.438,540.451,539.092,0.0
52628.0,STARLINK-4001,PAYLOAD,2024-05-19 20:58:26,15.08841522,8.89e-05,53.2182,1.6615,67.4329,292.6757,-0.0001427,-2.558e-05,0.0,0 STARLINK-4001,1 52628U 22052AG  24140.87391862 -.00002558  00000-0 -14270-3 0  9998,2 52628  53.2182   1.6615 0000889  67.4329 292.6757 15.08841522111705,6917.876,95.437,540.356,539.126,0.0
52628.0,STARLINK-4001,PAYLOAD,2024-05-20 14:27:43,15.08809319,0.0001086,53.2182,358.3906,58.9022,301.2076,0.001127,0.00017679,0.0,0 STARLINK-4001,1 52628U 22052AG  24141.60258180  .00017679  00000-0  11270-2 0  9999,2 52628  53.2182 358.3906 0001086  58.9022 301.2076 15.08809319111434,6917.974,95.439,540.59,539.088,0.0
52628.0,STARLINK-4001,PAYLOAD,2024-05-20 20:49:14,15.08835017,0.000106,53.2174,357.1995,52.5199,307.589,0.00028507,4.251e-05,0.0,0 STARLINK-4001,1 52628U 22052AG  24141.86752848  .00004251  00000-0  28507-3 0  9991,2 52628  53.2174 357.1995 0001060  52.5199 307.5890 15.08835017111850,6917.896,95.438,540.494,539.027,0.0
52628.0,STARLINK-4001,PAYLOAD,2024-05-21 00:00:00,15.088384,0.0001011,53.2173,356.6042,54.9811,305.1276,0.00032603,4.905e-05,0.0,0 STARLINK-4001,1 52628U 22052AG  24142.00000766  .00004905  00000-0  32603-3 0  9991,2 52628  53.2173 356.6042 0001011  54.9811 305.1276 15.08838400111490,6917.885,95.438,540.45,539.051,0.0
52628.0,STARLINK-4001,PAYLOAD,2024-05-21 20:40:01,15.08846129,9.79e-05,53.2186,352.7374,95.0533,265.0571,0.0002133,3.109e-05,0.0,0 STARLINK-4001,1 52628U 22052AG  24142.86112309  .00003109  00000-0  21330-3 0  9992,2 52628  53.2186 352.7374 0000979  95.0533 265.0571 15.08846129111622,6917.862,95.437,540.404,539.049,0.0
52628.0,STARLINK-4001,PAYLOAD,2024-05-22 20:30:48,15.08844118,9.73e-05,53.2187,348.2764,82.4499,277.6603,0.00011878,1.603e-05,0.0,0 STARLINK-4001,1 52628U 22052AG  24143.85472229  .00001603  00000-0  11878-3 0  9995,2 52628  53.2187 348.2764 0000973  82.4499 277.6603 15.08844118112151,6917.868,95.437,540.406,539.06,0.0
52628.0,STARLINK-4001,PAYLOAD,2024-05-23 18:46:12,15.08839582,9.73e-05,53.2189,344.1168,88.2767,271.8336,-2.1595e-05,-6.31e-06,0.0,0 STARLINK-4001,1 52628U 22052AG  24144.78208348 -.00000631  00000-0 -21595-4 0  9997,2 52628  53.2189 344.1168 0000973  88.2767 271.8336 15.08839582112291,6917.882,95.438,540.42,539.074,0.0
52628.0,STARLINK-4001,PAYLOAD,2024-05-24 20:12:33,15.0869517,0.0003643,53.2189,339.3856,176.556,183.5457,-0.0015075,-0.00024109,0.0,0 STARLINK-4001,1 52628U 22052AG  24145.84204962 -.00024109  00000-0 -15075-2 0  9993,2 52628  53.2189 339.3856 0003643 176.5560 183.5457 15.08695170112454,6918.323,95.447,542.708,537.668,0.0
52628.0,STARLINK-4001,PAYLOAD,2024-05-25 02:33:53,15.08860415,0.0001895,53.2187,338.1881,167.9035,192.2003,-4.5745e-05,-1.017e-05,0.0,0 STARLINK-4001,1 52628U 22052AG  24146.10687122 -.00001017  00000-0 -45745-4 0  9998,2 52628  53.2187 338.1881 0001895 167.9035 192.2003 15.08860415112499,6917.818,95.436,540.994,538.372,0.0
52628.0,STARLINK-4001,PAYLOAD,2024-05-25 05:44:41,15.08826726,0.0001491,53.2189,337.5928,162.0015,198.103,-7.6961e-06,-4.1e-06,0.0,0 STARLINK-4001,1 52628U 22052AG  24146.23937456 -.00000410  00000-0 -76961-5 0  9991,2 52628  53.2189 337.5928 0001491 162.0015 198.1030 15.08826726112517,6917.921,95.438,540.817,538.755,0.0
52628.0,STARLINK-4001,PAYLOAD,2024-05-26 05:35:31,15.08787082,0.0002127,53.2182,333.1211,173.1947,186.9074,-0.00025774,-4.382e-05,0.0,0 STARLINK-4001,1 52628U 22052AG  24147.23300751 -.00004382  00000-0 -25774-3 0  9990,2 52628  53.2182 333.1211 0002127 173.1947 186.9074 15.08787082112661,6918.042,95.441,541.379,538.436,0.0
52628.0,STARLINK-4001,PAYLOAD,2024-05-26 19:53:51,15.08918687,7.93e-05,53.2174,330.448,165.5749,194.5266,0.00077753,0.00012135,0.0,0 STARLINK-4001,1 52628U 22052AG  24147.82906447  .00012135  00000-0  77753-3 0  9996,2 52628  53.2174 330.4480 0000793 165.5749 194.5266 15.08918687112757,6917.64,95.433,540.053,538.956,0.0
52628.0,STARLINK-4001,PAYLOAD,2024-05-27 02:15:27,15.08860826,7.98e-05,53.218,329.2516,124.9716,235.1351,0.0002562,3.794e-05,0.0,0 STARLINK-4001,1 52628U 22052AG  24148.09407037  .00003794  00000-0  25620-3 0  9994,2 52628  53.2180 329.2516 0000798 124.9716 235.1351 15.08860826112790,6917.817,95.436,540.234,539.13,0.0
52628.0,STARLINK-4001,PAYLOAD,2024-05-27 11:47:47,15.08840252,8.28e-05,53.2189,327.4647,79.7058,280.4027,0.00015316,2.151e-05,0.0,0 STARLINK-4001,1 52628U 22052AG  24148.49152630  .00002151  00000-0  15316-3 0  9991,2 52628  53.2189 327.4647 0000828  79.7058 280.4027 15.08840252112855,6917.88,95.438,540.317,539.172,0.0
52628.0,STARLINK-4001,PAYLOAD,2024-05-27 18:09:20,15.08841502,9.31e-05,53.2184,326.2715,129.2555,230.852,0.00010664,1.41e-05,0.0,0 STARLINK-4001,1 52628U 22052AG  24148.75648663  .00001410  00000-0  10664-3 0  9994,2 52628  53.2184 326.2715 0000931 129.2555 230.8520 15.08841502112510,6917.876,95.437,540.385,539.097,0.0
52628.0,STARLINK-4001,PAYLOAD,2024-05-28 11:38:34,15.08848558,7.17e-05,53.2188,323.0027,106.3033,253.8038,-5.1854e-05,-1.113e-05,0.0,0 STARLINK-4001,1 52628U 22052AG  24149.48512645 -.00001113  00000-0 -51854-4 0  9994,2 52628  53.2188 323.0027 0000717 106.3033 253.8038 15.08848558112623,6917.854,95.437,540.215,539.223,0.0
52628.0,STARLINK-4001,PAYLOAD,2024-05-28 18:00:07,15.08847795,6.9e-05,53.2188,321.8132,104.5052,255.6016,-6.5994e-05,-1.338e-05,0.0,0 STARLINK-4001,1 52628U 22052AG  24149.75008552 -.00001338  00000-0 -65994-4 0  9990,2 52628  53.2188 321.8132 0000690 104.5052 255.6016 15.08847795113042,6917.857,95.437,540.199,539.244,0.0
52628.0,STARLINK-4001,PAYLOAD,2024-05-29 11:29:24,15.08760512,0.0001278,53.2189,318.5425,120.0512,240.0607,0.0012252,0.00019222,0.0,0 STARLINK-4001,1 52628U 22052AG  24150.47875786  .00019222  00000-0  12252-2 0  9998,2 52628  53.2189 318.5425 0001278 120.0512 240.0607 15.08760512113155,6918.123,95.443,540.872,539.104,0.0
52628.0,STARLINK-4001,PAYLOAD,2024-05-29 14:40:08,15.08837743,7.03e-05,53.2182,317.9477,73.942,286.1649,6.6441e-05,7.7e-06,0.0,0 STARLINK-4001,1 52628U 22052AG  24150.61120698  .00000770  00000-0  66441-4 0  9998,2 52628  53.2182 317.9477 0000703  73.9420 286.1649 15.08837743112791,6917.887,95.438,540.239,539.266,0.0
52628.0,STARLINK-4001,PAYLOAD,2024-05-29 17:50:54,15.08839369,7.51e-05,53.2186,317.3531,80.8278,279.2799,7.5663e-05,9.17e-06,0.0,0 STARLINK-4001,1 52628U 22052AG  24150.74368571  .00000917  00000-0  75663-4 0  9995,2 52628  53.2186 317.3531 0000751  80.8278 279.2799 15.08839369113191,6917.882,95.438,540.267,539.228,0.0
52628.0,STARLINK-4001,PAYLOAD,2024-05-29 21:01:40,15.08840657,7.53e-05,53.2186,316.7583,83.8732,276.2346,8.5497e-05,1.073e-05,0.0,0 STARLINK-4001,1 52628U 22052AG  24150.87616525  .00001073  00000-0  85497-4 0  9994,2 52628  53.2186 316.7583 0000753  83.8732 276.2346 15.08840657112838,6917.878,95.438,540.264,539.222,0.0
52628.0,STARLINK-4001,PAYLOAD,2024-05-30 14:30:55,15.08839404,8.24e-05,53.2187,313.487,110.4024,249.7056,9.1129e-05,1.163e-05,0.0,0 STARLINK-4001,1 52628U 22052AG  24151.60480641  .00001163  00000-0  91129-4 0  9993,2 52628  53.2187 313.4870 0000824 110.4024 249.7056 15.08839404112945,6917.882,95.438,540.317,539.177,0.0
52628.0,STARLINK-4001,PAYLOAD,2024-05-30 17:41:41,15.08840852,8.23e-05,53.2186,312.8923,108.9653,251.1429,0.00010104,1.321e-05,0.0,0 STARLINK-4001,1 52628U 22052AG  24151.73728537  .00001321  00000-0  10104-3 0  9995,2 52628  53.2186 312.8923 0000823 108.9653 251.1429 15.08840852112967,6917.878,95.438,540.312,539.173,0.0
52628.0,STARLINK-4001,PAYLOAD,2024-05-31 09:35:32,15.08841463,8.62e-05,53.2185,309.9185,111.8868,248.2216,8.582e-05,1.078e-05,0.0,0 STARLINK-4001,1 52628U 22052AG  24152.39968532  .00001078  00000-0  85820-4 0  9996,2 52628  53.2185 309.9185 0000862 111.8868 248.2216 15.08841463113441,6917.876,95.437,540.337,539.145,0.0
52628.0,STARLINK-4001,PAYLOAD,2024-05-31 14:21:42,15.08841195,8.67e-05,53.2184,309.0259,114.6236,245.4847,7.7533e-05,9.46e-06,0.0,0 STARLINK-4001,1 52628U 22052AG  24152.59840577  .00000946  00000-0  77533-4 0  9991,2 52628  53.2184 309.0259 0000867 114.6236 245.4847 15.08841195113090,6917.877,95.437,540.342,539.142,0.0
52628.0,STARLINK-4001,PAYLOAD,2024-05-31 17:32:28,15.08837983,8.1e-05,53.2188,308.4342,103.7191,256.3891,5.283e-05,5.53e-06,0.0,0 STARLINK-4001,1 52628U 22052AG  24152.73088849  .00000553  00000-0  52830-4 0  9990,2 52628  53.2188 308.4342 0000810 103.7191 256.3891 15.08837983113110,6917.887,95.438,540.312,539.191,0.0
